      2.10          N: GNSS NAV DATA                        RINEX VERSION / TYPE
fic2rin                                 08/10/2018 00:08:47 PGM / RUN BY / DATE
                                                            END OF HEADER
19 18  8 10  0  0  0.0-4.131365567446e-04 3.296918293927e-12 0.000000000000e+00
    1.040000000000e+02 2.596875000000e+01 4.272677974188e-09-2.137171724775e+00
    1.389533281326e-06 9.807452326640e-03-6.798654794693e-07 5.153722875595e+03
    4.320000000000e+05 1.378357410431e-07 1.325589996121e+00 2.607703208923e-08
    9.803901777118e-01 3.952500000000e+02 1.255046621958e+00-8.236771666030e-09
    2.646538810393e-10 1.000000000000e+00 2.013000000000e+03 0.000000000000e+00
    2.400000000000e+00 0.000000000000e+00-1.536682248116e-08 1.040000000000e+02
    4.248060000000e+05 4.000000000000e+00
17 18  8 10  0  0  0.0-6.903568282723e-05 4.206412995700e-12 0.000000000000e+00
    6.800000000000e+01 4.678125000000e+01 4.350181202508e-09 1.326765679013e+00
    2.257525920868e-06 1.245698716957e-02 4.936009645462e-07 5.153592821121e+03
    4.320000000000e+05-2.179294824600e-07 1.278728332511e+00-1.303851604462e-07
    9.828263912813e-01 3.789375000000e+02-1.776341043620e+00-8.482139029423e-09
    1.978653847446e-10 1.000000000000e+00 2.013000000000e+03 0.000000000000e+00
    2.400000000000e+00 0.000000000000e+00-1.117587089539e-08 6.800000000000e+01
    4.248060000000e+05 4.000000000000e+00
16 18  8 10  0  0  0.0 1.425528898835e-05-1.591615728103e-12 0.000000000000e+00
    1.120000000000e+02 1.638437500000e+02 3.610150377254e-09 2.324157760443e+00
    8.298084139824e-06 9.962324867956e-03 1.052953302860e-05 5.153683572769e+03
    4.320000000000e+05-1.192092895508e-07 2.638671659380e-01-9.872019290924e-08
    9.866784681701e-01 1.900312500000e+02 5.229969569454e-01-7.634603726175e-09
    1.600066649198e-10 1.000000000000e+00 2.013000000000e+03 0.000000000000e+00
    2.400000000000e+00 0.000000000000e+00-1.071020960808e-08 1.120000000000e+02
    4.248060000000e+05 4.000000000000e+00
30 18  8 10  0  0  0.0 3.970693796873e-05-4.888534022029e-12 0.000000000000e+00
    6.200000000000e+01-2.687500000000e+01 4.880560437789e-09-1.478379019689e+00
   -1.452863216400e-06 3.625870565884e-03 1.004897058010e-05 5.153702150345e+03
    4.320000000000e+05-8.381903171539e-08-8.161530433645e-01-1.061707735062e-07
    9.433416968939e-01 1.766250000000e+02-3.000742678554e+00-8.079265105250e-09
   -7.753894409397e-10 1.000000000000e+00 2.013000000000e+03 0.000000000000e+00
    2.400000000000e+00 0.000000000000e+00 3.725290298462e-09 6.200000000000e+01
    4.248060000000e+05 4.000000000000e+00
31 18  8 10  0  0  0.0 1.017716713250e-04-2.614797267597e-12 0.000000000000e+00
    5.100000000000e+01-8.000000000000e+00 4.508759236491e-09-1.673837754610e+00
   -4.917383193970e-07 8.795275236480e-03 1.031160354614e-05 5.153712619781e+03
    4.320000000000e+05 3.539025783539e-08-8.358378744710e-01-1.471489667892e-07
    9.623844854396e-01 1.828125000000e+02-1.197956741307e-01-7.914615389785e-09
   -7.128868374554e-10 1.000000000000e+00 2.013000000000e+03 0.000000000000e+00
    2.400000000000e+00 0.000000000000e+00-1.350417733192e-08 5.100000000000e+01
    4.248060000000e+05 4.000000000000e+00
18 18  8 10  0  0  0.0 4.382617771626e-05 4.433786671143e-12 0.000000000000e+00
    1.100000000000e+02-1.576875000000e+02 4.884132015131e-09-1.067083828073e+00
   -7.808208465576e-06 1.490894774906e-02 6.044283509254e-06 5.153639198303e+03
    4.320000000000e+05-2.793967723846e-08 2.232149714910e+00 3.408640623093e-07
    9.505375612477e-01 2.599062500000e+02 1.332177877573e+00-8.545713106110e-09
   -2.435815747217e-10 1.000000000000e+00 2.013000000000e+03 0.000000000000e+00
    2.400000000000e+00 0.000000000000e+00-6.519258022308e-09 1.100000000000e+02
    4.248060000000e+05 4.000000000000e+00
29 18  8 10  0  0  0.0 3.989394754171e-04-7.162270776462e-12 0.000000000000e+00
    7.000000000000e+01 2.028125000000e+01 4.245176828655e-09 2.045395250396e+00
    1.104548573494e-06 8.366423426196e-04 9.499490261078e-08 5.153647806168e+03
    4.320000000000e+05 5.774199962616e-08 1.289442166671e+00-4.284083843231e-08
    9.841392022623e-01 3.891250000000e+02 1.484054716127e+00-8.326775415047e-09
    1.850077063136e-10 1.000000000000e+00 2.013000000000e+03 0.000000000000e+00
    2.400000000000e+00 0.000000000000e+00-1.024454832077e-08 7.000000000000e+01
    4.248060000000e+05 4.000000000000e+00
27 18  8 10  0  0  0.0 3.551533445716e-04-2.842170943040e-12 0.000000000000e+00
    4.500000000000e+01 4.987500000000e+01 4.461257257843e-09 1.355555647877e+00
    2.486631274223e-06 6.003707414493e-03-5.960464477539e-08 5.153688354492e+03
    4.320000000000e+05-8.568167686462e-08 1.224226156448e+00 3.166496753693e-08
    9.775306000389e-01 3.893125000000e+02 4.562466850543e-01-8.522497853387e-09
    1.421487782100e-10 1.000000000000e+00 2.013000000000e+03 0.000000000000e+00
    2.400000000000e+00 0.000000000000e+00 1.862645149231e-09 4.500000000000e+01
    4.248060000000e+05 4.000000000000e+00
20 18  8 10  0  0  0.0 5.138847045600e-04 6.821210263297e-13 0.000000000000e+00
    6.600000000000e+01-3.284375000000e+01 5.036638367633e-09-9.342010936139e-01
   -1.797452569008e-06 4.107429645956e-03 1.308694481850e-05 5.153678041458e+03
    4.320000000000e+05-9.313225746155e-08-3.071718532264e+00 1.676380634308e-08
    9.292778988288e-01 1.130000000000e+02 2.067162009961e+00-8.192126949256e-09
    5.914532078287e-10 1.000000000000e+00 2.013000000000e+03 0.000000000000e+00
    2.400000000000e+00 0.000000000000e+00-8.381903171539e-09 6.600000000000e+01
    4.248060000000e+05 4.000000000000e+00
26 18  8 10  0  0  0.0-5.667237564921e-05 1.193711796077e-11 0.000000000000e+00
    1.750000000000e+02 1.540312500000e+02 4.184102856107e-09-3.038624551618e+00
    7.919967174530e-06 2.813002094626e-03 1.055002212524e-05 5.153710859299e+03
    4.320000000000e+05 5.401670932770e-08 1.610592476441e-01 3.725290298462e-09
    9.553523611177e-01 1.743750000000e+02 9.147507082959e-02-7.920687071267e-09
    7.571743964957e-11 1.000000000000e+00 2.013000000000e+03 0.000000000000e+00
    3.400000000000e+00 0.000000000000e+00 7.450580596924e-09 1.750000000000e+02
    4.248060000000e+05 4.000000000000e+00
28 18  8 10  0  0  0.0 7.371851243079e-04 2.614797267597e-12 0.000000000000e+00
    9.900000000000e+01 1.347187500000e+02 3.477287700133e-09 2.266670792622e+00
    6.940215826035e-06 1.947432151064e-02 1.030787825584e-05 5.153688964844e+03
    4.320000000000e+05 2.626329660416e-07 2.680510384988e-01-4.656612873077e-08
    9.855667660003e-01 1.860937500000e+02-1.516599730912e+00-7.270302837295e-09
    1.050043738536e-10 1.000000000000e+00 2.013000000000e+03 0.000000000000e+00
    4.850000000000e+00 0.000000000000e+00-1.117587089539e-08 9.900000000000e+01
    4.248060000000e+05 4.000000000000e+00
22 18  8  9 23 59 44.0-4.843743517995e-04-1.159605744760e-11 0.000000000000e+00
    4.000000000000e+00-4.956250000000e+01 5.243789853467e-09 6.224709566196e-01
   -2.510845661163e-06 7.188760326244e-03 1.257658004761e-05 5.153751832962e+03
    4.319840000000e+05-7.823109626770e-08-3.022105337721e+00 2.048909664154e-08
    9.260008028732e-01 1.222187500000e+02-1.496283302480e+00-8.341061724415e-09
    5.996678357152e-10 1.000000000000e+00 2.013000000000e+03 0.000000000000e+00
    2.400000000000e+00 0.000000000000e+00-1.816079020500e-08 4.000000000000e+00
    4.260060000000e+05 4.000000000000e+00
15 18  8  9 23 59 44.0-3.488743677735e-04 9.094947017729e-13 0.000000000000e+00
    3.000000000000e+00 2.846875000000e+01 6.013821928394e-09 4.576235908651e-01
    1.732259988785e-06 1.046168454923e-02 4.660338163376e-06 5.153780860901e+03
    4.319840000000e+05 7.450580596924e-09-1.999159929310e+00 7.823109626770e-08
    9.278909530112e-01 2.692500000000e+02 6.931510170707e-01-8.932157774510e-09
    1.410773050075e-10 1.000000000000e+00 2.013000000000e+03 0.000000000000e+00
    2.400000000000e+00 0.000000000000e+00-1.071020960808e-08 3.000000000000e+00
    4.268160000000e+05 4.000000000000e+00
28 18  8  9 23 59 44.0 7.371753454208e-04 2.387423592154e-12 0.000000000000e+00
    3.000000000000e+00 1.347187500000e+02 3.477287700133e-09 2.264336857508e+00
    6.940215826035e-06 1.947432488669e-02 1.030787825584e-05 5.153688966751e+03
    4.319840000000e+05 2.626329660416e-07 2.680511774760e-01-4.656612873077e-08
    9.855667660003e-01 1.860937500000e+02-1.516599507086e+00-7.269945679561e-09
    1.050043738536e-10 1.000000000000e+00 2.013000000000e+03 0.000000000000e+00
    2.400000000000e+00 0.000000000000e+00-1.117587089539e-08 3.000000000000e+00
    4.281360000000e+05 4.000000000000e+00
 2 18  8  9 23 59 28.0 3.274204209447e-05-1.125499693444e-11 0.000000000000e+00
    2.000000000000e+00-1.258125000000e+02 4.842344560231e-09-5.207101716802e-01
   -6.573274731636e-06 1.797938882373e-02 6.036832928658e-06 5.153796594620e+03
    4.319680000000e+05-1.974403858185e-07 2.218243948570e+00 1.806765794754e-07
    9.511930114526e-01 2.648125000000e+02-1.839547355503e+00-8.682861676041e-09
   -1.482204596914e-10 1.000000000000e+00 2.013000000000e+03 0.000000000000e+00
    2.400000000000e+00 0.000000000000e+00-2.048909664154e-08 2.000000000000e+00
    4.283460000000e+05 4.000000000000e+00
19 18  8  9 23 59 44.0-4.131360910833e-04 3.296918293927e-12 0.000000000000e+00
    6.000000000000e+00 2.596875000000e+01 4.272677974188e-09-2.139505297086e+00
    1.389533281326e-06 9.807449765503e-03-6.798654794693e-07 5.153722869873e+03
    4.319840000000e+05 1.378357410431e-07 1.325590130710e+00 2.793967723846e-08
    9.803901806376e-01 3.952500000000e+02 1.255046579533e+00-8.236771666030e-09
    2.646538810393e-10 1.000000000000e+00 2.013000000000e+03 0.000000000000e+00
    2.400000000000e+00 0.000000000000e+00-1.536682248116e-08 6.000000000000e+00
    4.309560000000e+05 4.000000000000e+00
